0 COSMOS 1758
1 16791U 86046A   13282.05795158  .00002526  00000-0  20312-3 0  8360
2 16791 082.4711 260.9704 0017444 346.0687 014.0052 14.99494287483375
0 COSMOS 1758
1 16791U 86046A   13283.05891293  .00002513  00000-0  20211-3 0  8373
2 16791 082.4711 260.0026 0017363 342.6363 017.4264 14.99498674483529
0 COSMOS 1758
1 16791U 86046A   13285.86158789  .00002833  00000-0  22806-3 0  8399
2 16791 082.4709 257.2931 0017321 332.9436 027.0883 14.99510966483945
0 COSMOS 1758
1 16791U 86046A   13287.12945535  .00002887  00000-0  23242-3 0  8409
2 16791 082.4712 256.0671 0017156 328.2264 031.7923 14.99517955484134
0 COSMOS 1758
1 16791U 86046A   13288.13039965  .00003675  00000-0  29634-3 0  8410
2 16791 082.4714 255.0991 0017043 324.6481 035.3612 14.99527357484284
0 COSMOS 1758
1 16791U 86046A   13289.13133789  .00003187  00000-0  25670-3 0  8425
2 16791 082.4716 254.1311 0016909 321.0561 038.9443 14.99532811484431
0 COSMOS 1758
1 16791U 86046A   13290.13227275  .00002809  00000-0  22599-3 0  8439
2 16791 082.4719 253.1634 0016814 317.5592 042.4331 14.99536896484589
0 COSMOS 1758
1 16791U 86046A   13291.46684756  .00002764  00000-0  22227-3 0  8446
2 16791 082.4722 251.8729 0016708 312.8374 047.1444 14.99543484484781
0 COSMOS 1758
1 16791U 86046A   13292.46777436  .00003209  00000-0  25839-3 0  8453
2 16791 082.4725 250.9051 0016674 309.2374 050.7368 14.99547222484930
0 COSMOS 1758
1 16791U 86046A   13293.46869823  .00003846  00000-0  31007-3 0  8468
2 16791 082.4727 249.9375 0016667 305.6174 054.3496 14.99551289485086
0 COSMOS 1758
1 16791U 86046A   13294.46961933  .00004256  00000-0  34328-3 0  8470
2 16791 082.4729 248.9700 0016676 301.8736 058.0864 14.99556277485230
0 COSMOS 1758
1 16791U 86046A   13295.47053744  .00004408  00000-0  35557-3 0  8489
2 16791 082.4729 248.0025 0016652 298.0699 061.8841 14.99563314485383
